{"type": "FeatureCollection", "features": [ {"type": "Feature", "properties": {"norad_id": 30121, "name": "FENGYUN 1C DEB", "group": "fengyun-1c-debris", "lat": 61.72734471789167, "lon": -16.73547807042388, "alt_km": 757.3532116682263, "timestamp": "2025-12-11T20:41:15.354947+00:00", "meta": {"OBJECT_NAME": "FENGYUN 1C DEB", "OBJECT_ID": "1999-025SA", "EPOCH": "2025-12-11T12:45:57.671136", "MEAN_MOTION": 14.39973852, "ECCENTRICITY": 0.00314145, "INCLINATION": 102.1658, "RA_OF_ASC_NODE": 6.4444, "ARG_OF_PERICENTER": 168.1615, "MEAN_ANOMALY": 346.3493, "EPHEMERIS_TYPE": 0, "CLASSIFICATION_TYPE": "U", "NORAD_CAT_ID": 30121, "ELEMENT_SET_NO": 999, "REV_AT_EPOCH": 97522, "BSTAR": 0.0038724688, "MEAN_MOTION_DOT": 0.00012213, "MEAN_MOTION_DDOT": 0}, "tle": {"line1": "1 30121U 99025SA  25345.53191749  .00012213  00000+0  38725-2 0  9995", "line2": "2 30121 102.1658   6.4444 0031414 168.1615 346.3493 14.39973852975223"}}, "geometry": {"type": "Point", "coordinates": [-16.73547807042388, 61.72734471789167]}}, {"type": "Feature", "properties": {"norad_id": 30123, "name": "FENGYUN 1C DEB", "group": "fengyun-1c-debris", "lat": -65.81402707681156, "lon": 90.80702717387139, "alt_km": 966.9799133434753, "timestamp": "2025-12-11T20:41:15.354957+00:00", "meta": {"OBJECT_NAME": "FENGYUN 1C DEB", "OBJECT_ID": "1999-025SC", "EPOCH": "2025-12-11T02:42:35.772192", "MEAN_MOTION": 14.25947004, "ECCENTRICITY": 0.02306037, "INCLINATION": 96.9258, "RA_OF_ASC_NODE": 285.9157, "ARG_OF_PERICENTER": 89.7443, "MEAN_ANOMALY": 273.0163, "EPHEMERIS_TYPE": 0, "CLASSIFICATION_TYPE": "U", "NORAD_CAT_ID": 30123, "ELEMENT_SET_NO": 999, "REV_AT_EPOCH": 97224, "BSTAR": 0.0021292323, "MEAN_MOTION_DOT": 6.688e-05, "MEAN_MOTION_DDOT": 0}, "tle": {"line1": "1 30123U 99025SC  25345.11291403  .00006688  00000+0  21292-2 0  9999", "line2": "2 30123  96.9258 285.9157 0230603  89.7443 273.0163 14.25947004972248"}}, "geometry": {"type": "Point", "coordinates": [90.80702717387139, -65.81402707681156]}}, {"type": "Feature", "properties": {"norad_id": 30124, "name": "FENGYUN 1C DEB", "group": "fengyun-1c-debris", "lat": -27.5109482745676, "lon": -145.09649133363368, "alt_km": 866.3075616781043, "timestamp": "2025-12-11T20:41:15.354966+00:00", "meta": {"OBJECT_NAME": "FENGYUN 1C DEB", "OBJECT_ID": "1999-025SD", "EPOCH": "2025-12-11T15:20:22.139232", "MEAN_MOTION": 14.14223922, "ECCENTRICITY": 0.0143429, "INCLINATION": 99.1315, "RA_OF_ASC_NODE": 39.4809, "ARG_OF_PERICENTER": 108.912, "MEAN_ANOMALY": 43.3634, "EPHEMERIS_TYPE": 0, "CLASSIFICATION_TYPE": "U", "NORAD_CAT_ID": 30124, "ELEMENT_SET_NO": 999, "REV_AT_EPOCH": 96899, "BSTAR": 0.001298394, "MEAN_MOTION_DOT": 2.69e-05, "MEAN_MOTION_DDOT": 0}, "tle": {"line1": "1 30124U 99025SD  25345.63914513  .00002690  00000+0  12984-2 0  9998", "line2": "2 30124  99.1315  39.4809 0143429 108.9120  43.3634 14.14223922968991"}}, "geometry": {"type": "Point", "coordinates": [-145.09649133363368, -27.5109482745676]}}, {"type": "Feature", "properties": {"norad_id": 30125, "name": "FENGYUN 1C DEB", "group": "fengyun-1c-debris", "lat": -26.51475135992148, "lon": 89.06150458271718, "alt_km": 582.0575793377393, "timestamp": "2025-12-11T20:41:15.354976+00:00", "meta": {"OBJECT_NAME": "FENGYUN 1C DEB", "OBJECT_ID": "1999-025SE", "EPOCH": "2025-12-11T12:39:36.082080", "MEAN_MOTION": 14.22643284, "ECCENTRICITY": 0.03423561, "INCLINATION": 98.7235, "RA_OF_ASC_NODE": 84.3364, "ARG_OF_PERICENTER": 347.707, "MEAN_ANOMALY": 74.3579, "EPHEMERIS_TYPE": 0, "CLASSIFICATION_TYPE": "U", "NORAD_CAT_ID": 30125, "ELEMENT_SET_NO": 999, "REV_AT_EPOCH": 96904, "BSTAR": 0.0011774867, "MEAN_MOTION_DOT": 4.765e-05, "MEAN_MOTION_DDOT": 0}, "tle": {"line1": "1 30125U 99025SE  25345.52750095  .00004765  00000+0  11775-2 0  9992", "line2": "2 30125  98.7235  84.3364 0342356 347.7070  74.3579 14.22643284969045"}}, "geometry": {"type": "Point", "coordinates": [89.06150458271718, -26.51475135992148]}}, {"type": "Feature", "properties": {"norad_id": 30127, "name": "FENGYUN 1C DEB", "group": "fengyun-1c-debris", "lat": -26.03992042490589, "lon": -153.54935048583332, "alt_km": 789.0895802427176, "timestamp": "2025-12-11T20:41:15.354986+00:00", "meta": {"OBJECT_NAME": "FENGYUN 1C DEB", "OBJECT_ID": "1999-025SG", "EPOCH": "2025-12-11T00:46:11.818272", "MEAN_MOTION": 14.37951525, "ECCENTRICITY": 0.00852946, "INCLINATION": 98.2073, "RA_OF_ASC_NODE": 201.6141, "ARG_OF_PERICENTER": 84.1508, "MEAN_ANOMALY": 276.9395, "EPHEMERIS_TYPE": 0, "CLASSIFICATION_TYPE": "U", "NORAD_CAT_ID": 30127, "ELEMENT_SET_NO": 999, "REV_AT_EPOCH": 97211, "BSTAR": 0.0035457649, "MEAN_MOTION_DOT": 0.0001115, "MEAN_MOTION_DDOT": 0}, "tle": {"line1": "1 30127U 99025SG  25345.03208123  .00011150  00000+0  35458-2 0  9990", "line2": "2 30127  98.2073 201.6141 0085294  84.1508 276.9395 14.37951525972116"}}, "geometry": {"type": "Point", "coordinates": [-153.54935048583332, -26.03992042490589]}}, {"type": "Feature", "properties": {"norad_id": 30128, "name": "FENGYUN 1C DEB", "group": "fengyun-1c-debris", "lat": -71.57440237437167, "lon": 6.342250511683175, "alt_km": 817.3155416170684, "timestamp": "2025-12-11T20:41:15.354996+00:00", "meta": {"OBJECT_NAME": "FENGYUN 1C DEB", "OBJECT_ID": "1999-025SH", "EPOCH": "2025-12-11T11:45:30.602592", "MEAN_MOTION": 14.46075236, "ECCENTRICITY": 0.01074652, "INCLINATION": 96.9804, "RA_OF_ASC_NODE": 344.4586, "ARG_OF_PERICENTER": 128.7982, "MEAN_ANOMALY": 22.2375, "EPHEMERIS_TYPE": 0, "CLASSIFICATION_TYPE": "U", "NORAD_CAT_ID": 30128, "ELEMENT_SET_NO": 999, "REV_AT_EPOCH": 97293, "BSTAR": 0.0046977831, "MEAN_MOTION_DOT": 0.0001801, "MEAN_MOTION_DDOT": 0}, "tle": {"line1": "1 30128U 99025SH  25345.48993753  .00018010  00000+0  46978-2 0  9991", "line2": "2 30128  96.9804 344.4586 0107465 128.7982  22.2375 14.46075236972935"}}, "geometry": {"type": "Point", "coordinates": [6.342250511683175, -71.57440237437167]}}, {"type": "Feature", "properties": {"norad_id": 30129, "name": "FENGYUN 1C DEB", "group": "fengyun-1c-debris", "lat": 21.001982890428483, "lon": -75.28491043458669, "alt_km": 846.9952254080672, "timestamp": "2025-12-11T20:41:15.355006+00:00", "meta": {"OBJECT_NAME": "FENGYUN 1C DEB", "OBJECT_ID": "1999-025SJ", "EPOCH": "2025-12-11T14:35:15.213408", "MEAN_MOTION": 14.01574564, "ECCENTRICITY": 0.01886738, "INCLINATION": 98.0273, "RA_OF_ASC_NODE": 287.5967, "ARG_OF_PERICENTER": 95.6023, "MEAN_ANOMALY": 86.0633, "EPHEMERIS_TYPE": 0, "CLASSIFICATION_TYPE": "U", "NORAD_CAT_ID": 30129, "ELEMENT_SET_NO": 999, "REV_AT_EPOCH": 96462, "BSTAR": 0.00071882674, "MEAN_MOTION_DOT": 1.236e-05, "MEAN_MOTION_DDOT": 0}, "tle": {"line1": "1 30129U 99025SJ  25345.60781497  .00001236  00000+0  71883-3 0  9992", "line2": "2 30129  98.0273 287.5967 0188673  95.6023  86.0633 14.01574564964628"}}, "geometry": {"type": "Point", "coordinates": [-75.28491043458669, 21.001982890428483]}}, {"type": "Feature", "properties": {"norad_id": 30131, "name": "FENGYUN 1C DEB", "group": "fengyun-1c-debris", "lat": 30.097871938812407, "lon": 72.35666910290419, "alt_km": 858.3996825791901, "timestamp": "2025-12-11T20:41:15.355016+00:00", "meta": {"OBJECT_NAME": "FENGYUN 1C DEB", "OBJECT_ID": "1999-025SL", "EPOCH": "2025-12-11T05:27:51.354144", "MEAN_MOTION": 14.21158999, "ECCENTRICITY": 0.00829374, "INCLINATION": 99.0743, "RA_OF_ASC_NODE": 77.0204, "ARG_OF_PERICENTER": 163.0793, "MEAN_ANOMALY": 224.8412, "EPHEMERIS_TYPE": 0, "CLASSIFICATION_TYPE": "U", "NORAD_CAT_ID": 30131, "ELEMENT_SET_NO": 999, "REV_AT_EPOCH": 96667, "BSTAR": 0.0041312482, "MEAN_MOTION_DOT": 9.266e-05, "MEAN_MOTION_DDOT": 0}, "tle": {"line1": "1 30131U 99025SL  25345.22767771  .00009266  00000+0  41312-2 0  9996", "line2": "2 30131  99.0743  77.0204 0082937 163.0793 224.8412 14.21158999966676"}}, "geometry": {"type": "Point", "coordinates": [72.35666910290419, 30.097871938812407]}}, {"type": "Feature", "properties": {"norad_id": 30132, "name": "FENGYUN 1C DEB", "group": "fengyun-1c-debris", "lat": 71.69174240956332, "lon": 150.0935037821737, "alt_km": 858.4556251246904, "timestamp": "2025-12-11T20:41:15.355026+00:00", "meta": {"OBJECT_NAME": "FENGYUN 1C DEB", "OBJECT_ID": "1999-025SM", "EPOCH": "2025-12-11T15:52:12.889920", "MEAN_MOTION": 13.9484841, "ECCENTRICITY": 0.01056527, "INCLINATION": 99.5774, "RA_OF_ASC_NODE": 299.2036, "ARG_OF_PERICENTER": 52.6086, "MEAN_ANOMALY": 124.6855, "EPHEMERIS_TYPE": 0, "CLASSIFICATION_TYPE": "U", "NORAD_CAT_ID": 30132, "ELEMENT_SET_NO": 999, "REV_AT_EPOCH": 96074, "BSTAR": 0.00057246318, "MEAN_MOTION_DOT": 7.58e-06, "MEAN_MOTION_DDOT": 0}, "tle": {"line1": "1 30132U 99025SM  25345.66126030  .00000758  00000+0  57246-3 0  9993", "line2": "2 30132  99.5774 299.2036 0105652  52.6086 124.6855 13.94848410960748"}}, "geometry": {"type": "Point", "coordinates": [150.0935037821737, 71.69174240956332]}}, {"type": "Feature", "properties": {"norad_id": 30133, "name": "FENGYUN 1C DEB", "group": "fengyun-1c-debris", "lat": -46.3994137882006, "lon": 161.46591622154895, "alt_km": 837.4037115102556, "timestamp": "2025-12-11T20:41:15.355068+00:00", "meta": {"OBJECT_NAME": "FENGYUN 1C DEB", "OBJECT_ID": "1999-025SN", "EPOCH": "2025-12-11T10:55:47.018784", "MEAN_MOTION": 14.06662986, "ECCENTRICITY": 0.00855586, "INCLINATION": 98.3246, "RA_OF_ASC_NODE": 152.2475, "ARG_OF_PERICENTER": 264.1413, "MEAN_ANOMALY": 150.4018, "EPHEMERIS_TYPE": 0, "CLASSIFICATION_TYPE": "U", "NORAD_CAT_ID": 30133, "ELEMENT_SET_NO": 999, "REV_AT_EPOCH": 96360, "BSTAR": 0.0025137436, "MEAN_MOTION_DOT": 4.273e-05, "MEAN_MOTION_DDOT": 0}, "tle": {"line1": "1 30133U 99025SN  25345.45540531  .00004273  00000+0  25137-2 0  9996", "line2": "2 30133  98.3246 152.2475 0085558 264.1413 150.4018 14.06662986963603"}}, "geometry": {"type": "Point", "coordinates": [161.46591622154895, -46.3994137882006]}}]}